$$SOE
2460728.500000000, A.D. 2025-Feb-22 00:00:00.0000, 5.253004529217533E+07, 2.219667475512459E+08, -1.704997896652060E+07,
2460735.500000000, A.D. 2025-Mar-01 00:00:00.0000, 3.928073210479715E+07, 2.252144320610155E+08, -2.199524845672285E+07,
2460742.500000000, A.D. 2025-Mar-08 00:00:00.0000, 2.587397518382470E+07, 2.275600405370104E+08, -2.685244342423515E+07,
2460749.500000000, A.D. 2025-Mar-15 00:00:00.0000, 1.236472970490145E+07, 2.290050916319481E+08, -3.160339232774279E+07,
2460756.500000000, A.D. 2025-Mar-22 00:00:00.0000, -1.192954051422360E+06, 2.295545124895897E+08, -3.623075798779206E+07,
2460763.500000000, A.D. 2025-Mar-29 00:00:00.0000, -1.474609468045182E+07, 2.292164581616866E+08, -4.071806439996831E+07,
2460770.500000000, A.D. 2025-Apr-05 00:00:00.0000, -2.824292122287990E+07, 2.280021320472606E+08, -4.504971670479474E+07,
2460777.500000000, A.D. 2025-Apr-12 00:00:00.0000, -4.163299575623246E+07, 2.259256094319694E+08, -4.921101495276593E+07,
2460784.500000000, A.D. 2025-Apr-19 00:00:00.0000, -5.486731881501447E+07, 2.230036648767650E+08, -5.318816251229019E+07,
2460791.500000000, A.D. 2025-Apr-26 00:00:00.0000, -6.789841903066634E+07, 2.192556045795989E+08, -5.696826992420079E+07,
2460798.500000000, A.D. 2025-May-03 00:00:00.0000, -8.068042854456192E+07, 2.147031047673417E+08, -6.053935493242836E+07,
2460805.500000000, A.D. 2025-May-10 00:00:00.0000, -9.316914580876790E+07, 2.093700569014281E+08, -6.389033936501075E+07,
2460812.500000000, A.D. 2025-May-17 00:00:00.0000, -1.053220873345214E+08, 2.032824201963343E+08, -6.701104349210091E+07,
2460819.500000000, A.D. 2025-May-24 00:00:00.0000, -1.170985297466991E+08, 1.964680817294284E+08, -6.989217844691609E+07,
2460826.500000000, A.D. 2025-May-31 00:00:00.0000, -1.284595431821531E+08, 1.889567246048328E+08, -7.252533723311934E+07,
2460833.500000000, A.D. 2025-Jun-07 00:00:00.0000, -1.393680178077319E+08, 1.807797053728787E+08, -7.490298464302212E+07,
2460840.500000000, A.D. 2025-Jun-14 00:00:00.0000, -1.497886871089518E+08, 1.719699399127627E+08, -7.701844634281874E+07,
2460847.500000000, A.D. 2025-Jun-21 00:00:00.0000, -1.596881478990049E+08, 1.625617942680000E+08, -7.886589786368920E+07,
2460854.500000000, A.D. 2025-Jun-28 00:00:00.0000, -1.690348749951587E+08, 1.525909818311786E+08, -8.044035392749552E+07,
2460861.500000000, A.D. 2025-Jul-05 00:00:00.0000, -1.777992331015456E+08, 1.420944686015843E+08, -8.173765806391487E+07,
2460868.500000000, A.D. 2025-Jul-12 00:00:00.0000, -1.859534880007170E+08, 1.311103852350566E+08, -8.275447271894589E+07,
2460875.500000000, A.D. 2025-Jul-19 00:00:00.0000, -1.934718176738210E+08, 1.196779447648122E+08, -8.348827010561833E+07,
2460882.500000000, A.D. 2025-Jul-26 00:00:00.0000, -2.003303238718867E+08, 1.078373653360233E+08, -8.393732396942626E+07,
2460889.500000000, A.D. 2025-Aug-02 00:00:00.0000, -2.065070447282399E+08, 9.562979733635931E+07, -8.410070239119770E+07,
2460896.500000000, A.D. 2025-Aug-09 00:00:00.0000, -2.119819689674238E+08, 8.309725423483504E+07, -8.397826171913663E+07,
2460903.500000000, A.D. 2025-Aug-16 00:00:00.0000, -2.167370521384330E+08, 7.028254636246027E+07, -8.357064170118533E+07,
2460910.500000000, A.D. 2025-Aug-23 00:00:00.0000, -2.207562350125171E+08, 5.722921692030734E+07, -8.287926187337318E+07,
2460917.500000000, A.D. 2025-Aug-30 00:00:00.0000, -2.240254641786361E+08, 4.398148017184445E+07, -8.190631917755640E+07,
2460924.500000000, A.D. 2025-Sep-06 00:00:00.0000, -2.265327165482034E+08, 3.058416203531681E+07, -8.065478657144272E+07,
2460931.500000000, A.D. 2025-Sep-13 00:00:00.0000, -2.282680296723663E+08, 1.708263978379830E+07, -7.912841263578081E+07,
2460938.500000000, A.D. 2025-Sep-20 00:00:00.0000, -2.292235347663478E+08, 3.522778386926800E+06, -7.733172254733559E+07,
2460945.500000000, A.D. 2025-Sep-27 00:00:00.0000, -2.293934914612491E+08, -1.004913423006382E+07, -7.527002015023848E+07,
2460952.500000000, A.D. 2025-Oct-04 00:00:00.0000, -2.287743262937829E+08, -2.358645334770736E+07, -7.294939074702035E+07,
2460959.500000000, A.D. 2025-Oct-11 00:00:00.0000, -2.273646752391574E+08, -3.704224688548794E+07, -7.037670449256775E+07,
2460966.500000000, A.D. 2025-Oct-18 00:00:00.0000, -2.251654298588816E+08, -5.036936929396953E+07, -6.755962025883405E+07,
2460973.500000000, A.D. 2025-Oct-25 00:00:00.0000, -2.221797866810823E+08, -6.352054081826673E+07, -6.450658976119874E+07,
2460980.500000000, A.D. 2025-Nov-01 00:00:00.0000, -2.184132994297773E+08, -7.644843305809939E+07, -6.122686169090958E+07,
2460987.500000000, A.D. 2025-Nov-08 00:00:00.0000, -2.138739336224857E+08, -8.910576180376664E+07, -5.773048556747720E+07,
2460994.500000000, A.D. 2025-Nov-15 00:00:00.0000, -2.085721228320687E+08, -1.014453881441108E+08, -5.402831499543516E+07,
2461001.500000000, A.D. 2025-Nov-22 00:00:00.0000, -2.025208255215685E+08, -1.134204285344296E+08, -5.013200995093932E+07,
2461008.500000000, A.D. 2025-Nov-29 00:00:00.0000, -1.957355817447043E+08, -1.249843735608372E+08, -4.605403752524415E+07,
2461015.500000000, A.D. 2025-Dec-06 00:00:00.0000, -1.882345709276258E+08, -1.360912163889822E+08, -4.180767040892070E+07,
2461022.500000000, A.D. 2025-Dec-13 00:00:00.0000, -1.800386690674286E+08, -1.466955951111129E+08, -3.740698291269025E+07,
2461029.500000000, A.D. 2025-Dec-20 00:00:00.0000, -1.711715005135463E+08, -1.567529487537133E+08, -3.286684425267994E+07,
2461036.500000000, A.D. 2025-Dec-27 00:00:00.0000, -1.616594839429542E+08, -1.662196849984290E+08, -2.820290823833875E+07,
2461043.500000000, A.D. 2026-Jan-03 00:00:00.0000, -1.515318723382415E+08, -1.750533606908090E+08, -2.343159864528546E+07,
2461050.500000000, A.D. 2026-Jan-10 00:00:00.0000, -1.408207849763547E+08, -1.832128760812007E+08, -1.857008963606601E+07,
2461057.500000000, A.D. 2026-Jan-17 00:00:00.0000, -1.295612290924726E+08, -1.906586829592664E+08, -1.363628052821358E+07,
2461064.500000000, A.D. 2026-Jan-24 00:00:00.0000, -1.177911088692635E+08, -1.973530064983394E+08, -8.648764181054279E+06,
2461071.500000000, A.D. 2026-Jan-31 00:00:00.0000, -1.055512193115973E+08, -2.032600803525792E+08, -3.626788265594661E+06,
2461078.500000000, A.D. 2026-Feb-07 00:00:00.0000, -9.288522238982961E+07, -2.083463942401032E+08, 1.409791303835213E+06,
2461085.500000000, A.D. 2026-Feb-14 00:00:00.0000, -7.983960253692895E+07, -2.125809528042617E+08, 6.440565453777045E+06,
2461092.500000000, A.D. 2026-Feb-21 00:00:00.0000, -6.646359839604440E+07, -2.159355435104554E+08, 1.144463621289438E+07,
2461099.500000000, A.D. 2026-Feb-28 00:00:00.0000, -5.280910919269970E+07, -2.183850102704366E+08, 1.640069091591414E+07,
2461106.500000000, A.D. 2026-Mar-07 00:00:00.0000, -3.893057515222616E+07, -2.199075320629937E+08, 2.128708684312300E+07,
2461113.500000000, A.D. 2026-Mar-14 00:00:00.0000, -2.488482670692937E+07, -2.204849056629780E+08, 2.608194617336268E+07,
2461120.500000000, A.D. 2026-Mar-21 00:00:00.0000, -1.073089849210337E+07, -2.201028258128695E+08, 3.076326147645135E+07,
2461127.500000000, A.D. 2026-Mar-28 00:00:00.0000, 3.470191710333820E+06, -2.187511574869809E+08, 3.530901196015148E+07,
2461134.500000000, A.D. 2026-Apr-04 00:00:00.0000, 1.765569984706547E+07, -2.164241963674532E+08, 3.969729015285263E+07,
2461141.500000000, A.D. 2026-Apr-11 00:00:00.0000, 3.176144932556375E+07, -2.131209125790281E+08, 4.390643839825728E+07,
2461148.500000000, A.D. 2026-Apr-18 00:00:00.0000, 4.572216179419418E+07, -2.088451719881407E+08, 4.791519427219992E+07,
2461155.500000000, A.D. 2026-Apr-25 00:00:00.0000, 5.947182420668286E+07, -2.036059290707235E+08, 5.170284370951563E+07,
2461162.500000000, A.D. 2026-May-02 00:00:00.0000, 7.294409046305582E+07, -1.974173852752134E+08, 5.524938028768913E+07,
2461169.500000000, A.D. 2026-May-09 00:00:00.0000, 8.607271499209179E+07, -1.902991069091854E+08, 5.853566878101969E+07,
2461176.500000000, A.D. 2026-May-16 00:00:00.0000, 9.879201480178952E+07, -1.822760966242785E+08, 6.154361077843989E+07,
2461183.500000000, A.D. 2026-May-23 00:00:00.0000, 1.110373550978572E+08, -1.733788121470388E+08, 6.425630996047519E+07,
2461190.500000000, A.D. 2026-May-30 00:00:00.0000, 1.227456503770666E+08, -1.636431272960498E+08, 6.665823451355864E+07,
2461197.500000000, A.D. 2026-Jun-06 00:00:00.0000, 1.338558736800456E+08, -1.531102348404281E+08, 6.873537351353915E+07,
2461204.500000000, A.D. 2026-Jun-13 00:00:00.0000, 1.443095698244328E+08, -1.418264884307994E+08, 7.047538392370835E+07,
2461211.500000000, A.D. 2026-Jun-20 00:00:00.0000, 1.540513636049283E+08, -1.298431794570651E+08, 7.186772545057204E+07,
2461218.500000000, A.D. 2026-Jun-27 00:00:00.0000, 1.630294523053466E+08, -1.172162494503399E+08, 7.290378043071777E+07,
2461225.500000000, A.D. 2026-Jul-04 00:00:00.0000, 1.711960733945079E+08, -1.040059406759141E+08, 7.357695592101064E+07,
2461232.500000000, A.D. 2026-Jul-11 00:00:00.0000, 1.785079386627843E+08, -9.027638855652004E+07, 7.388276549200341E+07,
2461239.500000000, A.D. 2026-Jul-18 00:00:00.0000, 1.849266263407169E+08, -7.609516101337706E+07, 7.381888865258035E+07,
2461246.500000000, A.D. 2026-Jul-25 00:00:00.0000, 1.904189234308745E+08, -6.153275133867384E+07, 7.338520632829893E+07,
2461253.500000000, A.D. 2026-Aug-01 00:00:00.0000, 1.949571115562460E+08, -4.666203259580281E+07, 7.258381136885478E+07,
2461260.500000000, A.D. 2026-Aug-08 00:00:00.0000, 1.985191910893723E+08, -3.155768262339114E+07, 7.141899364083698E+07,
2461267.500000000, A.D. 2026-Aug-15 00:00:00.0000, 2.010890400182877E+08, -1.629558900714708E+07, 6.989719989523134E+07,
2461274.500000000, A.D. 2026-Aug-22 00:00:00.0000, 2.026565044894900E+08, -9.522430551834591E+05, 6.802696942045015E+07,
2461281.500000000, A.D. 2026-Aug-29 00:00:00.0000, 2.032174181678936E+08, 1.439586544206318E+07, 6.581884703503344E+07,
2461288.500000000, A.D. 2026-Sep-05 00:00:00.0000, 2.027735536417042E+08, 2.967283961286801E+07, 6.328527493915936E+07,
$$EOE